     2.100          NAVIGATION                              RINEX VERSION / TYPE
fic2rin                                 04/25/2009 02:21:41 PGM / RUN BY / DATE
                                                            END OF HEADER
28 09  4 24 14  0  0.0 -.242292881012D-04 -.341060513165D-12  .000000000000D+00
     .310000000000D+02  .222187500000D+02  .487341728311D-08  .165588795897D+01
     .104494392872D-05  .148598739179D-01  .504031777382D-05  .515363138580D+04
     .482400000000D+06 -.292435288429D-06 -.183609733093D+01 -.240281224251D-06
     .965930206802D+00  .285468750000D+03 -.202884640656D+01 -.830284584686D-08
     .367158150754D-09  .100000000000D+01  .152800000000D+04  .000000000000D+00
     .240000000000D+01  .000000000000D+00 -.107102096081D-07  .310000000000D+02
     .475206000000D+06  .400000000000D+01
29 09  4 24 14  0  0.0  .131339766085D-04  .409272615798D-11  .000000000000D+00
     .150000000000D+02 -.450937500000D+02  .468805241906D-08 -.253465046559D+01
    -.232644379139D-05  .341108127031D-02  .855885446072D-05  .515369404221D+04
     .482400000000D+06  .167638063431D-07 -.793472473485D+00  .335276126862D-07
     .959844414927D+00  .208812500000D+03 -.133592395581D+01 -.803676333488D-08
    -.521807449660D-09  .100000000000D+01  .152800000000D+04  .000000000000D+00
     .240000000000D+01  .000000000000D+00 -.884756445885D-08  .150000000000D+02
     .475206000000D+06  .400000000000D+01
30 09  4 24 14  0  0.0  .141507945955D-03  .272848410532D-11  .000000000000D+00
     .620000000000D+02  .347500000000D+02  .499699385914D-08  .212640039355D+01
     .172108411789D-05  .112879910739D-01  .528246164322D-05  .515359837914D+04
     .482400000000D+06  .176951289177D-06 -.190847799415D+01 -.180676579475D-06
     .951337438040D+00  .271281250000D+03  .141395677565D+01 -.818855537191D-08
     .517878714584D-09  .100000000000D+01  .152800000000D+04  .000000000000D+00
     .240000000000D+01  .000000000000D+00 -.838190317154D-08  .620000000000D+02
     .475206000000D+06  .400000000000D+01
31 09  4 24 14  0  0.0 -.585648231208D-04 -.102318153949D-11  .000000000000D+00
     .820000000000D+02 -.180312500000D+02  .385873216025D-08 -.174546133432D+01
    -.849366188049D-06  .711350457277D-02  .124257057905D-04  .515370160675D+04
     .482400000000D+06 -.372529029846D-07 -.291511175333D+01  .122934579849D-06
     .972686230206D+00  .149937500000D+03 -.114762423872D+01 -.767389107694D-08
     .387516141603D-09  .100000000000D+01  .152800000000D+04  .000000000000D+00
     .340000000000D+01  .000000000000D+00 -.130385160446D-07  .820000000000D+02
     .475206000000D+06  .400000000000D+01
32 09  4 24 14  0  0.0  .270451884717D-03 -.500222085975D-11  .000000000000D+00
     .111000000000D+03  .380000000000D+02  .496699260946D-08 -.838901982721D+00
     .211969017982D-05  .133529969025D-01  .108219683170D-05  .515358434486D+04
     .482400000000D+06 -.126659870148D-06  .136086272114D+01 -.102445483208D-06
     .964220596847D+00  .360437500000D+03 -.117517904244D+01 -.883072497800D-08
     .154292141173D-09  .100000000000D+01  .152800000000D+04  .000000000000D+00
     .340000000000D+01  .000000000000D+00 -.325962901115D-08  .111000000000D+03
     .475206000000D+06  .400000000000D+01
 5 09  4 24 15  0  0.0 -.472008250654D-04 -.164845914696D-10  .000000000000D+00
     .109000000000D+03  .340625000000D+02  .508914055456D-08 -.308357415497D+01
     .175833702087D-05  .953968230169D-02  .552274286747D-05  .515356858444D+04
     .486000000000D+06  .447034835815D-07 -.196227346521D+01 -.316649675369D-07
     .945508129352D+00  .263812500000D+03  .129977936233D+01 -.816534011919D-08
     .510735559900D-09  .100000000000D+01  .152800000000D+04  .000000000000D+00
     .965000000000D+01  .630000000000D+02 -.419095158577D-08  .109000000000D+03
     .475206000000D+06  .600000000000D+01
20 09  4 24 13 59 44.0  .844593159854D-04 -.102318153949D-11  .000000000000D+00
     .200000000000D+01  .643125000000D+02  .532022160858D-08  .257759248159D+01
     .326707959175D-05  .403364771046D-02  .603497028351D-06  .515362627983D+04
     .482384000000D+06  .335276126862D-07  .125193321776D+01 -.949949026108D-07
     .942299882710D+00  .353375000000D+03  .135136486303D+01 -.872429197321D-08
     .100004165575D-09  .100000000000D+01  .152800000000D+04  .000000000000D+00
     .240000000000D+01  .000000000000D+00 -.651925802231D-08  .200000000000D+01
     .475236000000D+06  .400000000000D+01
32 09  4 24 13 59 44.0  .270453281701D-03 -.500222085975D-11  .000000000000D+00
     .900000000000D+01  .380000000000D+02  .496663545173D-08 -.841235790562D+00
     .211969017982D-05  .133529917803D-01  .108219683170D-05  .515358435249D+04
     .482384000000D+06 -.126659870148D-06  .136086287182D+01 -.102445483208D-06
     .964220574903D+00  .360437500000D+03 -.117517921799D+01 -.883072497800D-08
     .153934983439D-09  .100000000000D+01  .152800000000D+04  .000000000000D+00
     .240000000000D+01  .000000000000D+00 -.325962901115D-08  .900000000000D+01
     .477936000000D+06  .400000000000D+01
16 09  4 24 13 59 44.0  .567534007132D-04 -.318323145621D-11  .000000000000D+00
     .000000000000D+00  .286875000000D+02  .475984112363D-08  .224064480998D+01
     .150315463543D-05  .533357169479D-02  .484474003315D-05  .515379774666D+04
     .482384000000D+06  .484287738800D-07 -.184432277508D+01  .108033418655D-06
     .967740859045D+00  .288968750000D+03 -.363123413182D+00 -.822069956799D-08
     .343228582562D-09  .100000000000D+01  .152800000000D+04  .000000000000D+00
     .240000000000D+01  .000000000000D+00 -.977888703346D-08  .000000000000D+00
     .480066000000D+06  .400000000000D+01
 5 09  4 24 13 59 44.0 -.470806844532D-04 -.158024704433D-10  .000000000000D+00
     .000000000000D+00  .367812500000D+02  .508628329269D-08  .267214203276D+01
     .187940895557D-05  .953939754982D-02  .556930899620D-05  .515356909561D+04
     .482384000000D+06  .949949026108D-07 -.196224403568D+01 -.428408384323D-07
     .945506256816D+00  .262843750000D+03  .129979013672D+01 -.818105505950D-08
     .528593446610D-09  .100000000000D+01  .152800000000D+04  .000000000000D+00
     .240000000000D+01  .630000000000D+02 -.419095158577D-08  .000000000000D+00
     .480486000000D+06  .400000000000D+01
 5 09  4 24 15 59 44.0 -.471947714686D-04 -.159161572810D-10  .000000000000D+00
     .500000000000D+01  .352187500000D+02  .510092675979D-08 -.256079867650D+01
     .182539224625D-05  .953996891622D-02  .538118183613D-05  .515356802559D+04
     .489584000000D+06  .689178705215D-07 -.196230266505D+01 -.745058059692D-07
     .945509955073D+00  .266656250000D+03  .129979471566D+01 -.817034032747D-08
     .489663253583D-09  .100000000000D+01  .152800000000D+04  .000000000000D+00
     .240000000000D+01  .630000000000D+02 -.419095158577D-08  .500000000000D+01
     .482406000000D+06  .400000000000D+01
16 09  4 24 15 59 44.0  .567301176488D-04 -.318323145621D-11  .000000000000D+00
     .100000000000D+01  .338437500000D+02  .470376735936D-08 -.299239926469D+01
     .187568366528D-05  .533431081567D-02  .501051545143D-05  .515379632378D+04
     .489584000000D+06 -.521540641785D-07 -.184438211543D+01  .242143869400D-07
     .967743953117D+00  .286968750000D+03 -.363157420176D+00 -.813283876538D-08
     .418588864478D-09  .100000000000D+01  .152800000000D+04  .000000000000D+00
     .240000000000D+01  .000000000000D+00 -.977888703346D-08  .100000000000D+01
     .482406000000D+06  .400000000000D+01
32 09  4 24 15 59 44.0  .270417425781D-03 -.500222085975D-11  .000000000000D+00
     .100000000000D+02  .442500000000D+02  .504235289138D-08  .209036080540D+00
     .233016908169D-05  .133529518498D-01  .144913792610D-05  .515358453369D+04
     .489584000000D+06 -.838190317154D-07  .136079922172D+01 -.931322574615D-07
     .964221745237D+00  .358656250000D+03 -.117521272906D+01 -.884251118323D-08
     .158578033983D-09  .100000000000D+01  .152800000000D+04  .000000000000D+00
     .240000000000D+01  .000000000000D+00 -.325962901115D-08  .100000000000D+02
     .482406000000D+06  .400000000000D+01
 1 09  4 24 16  0  0.0 -.761719420552D-04  .104591890704D-10  .000000000000D+00
     .330000000000D+02  .266562500000D+02  .482662961993D-08 -.254467203667D+01
     .140070915222D-05  .327283877414D-02  .527501106262D-05  .515375872612D+04
     .489600000000D+06 -.689178705215D-07 -.187318076671D+01 -.130385160446D-07
     .960156268100D+00  .278375000000D+03  .893465921722D+00 -.811748098281D-08
     .416445918073D-09  .100000000000D+01  .152800000000D+04  .000000000000D+00
     .485000000000D+01  .630000000000D+02 -.130385160446D-07  .330000000000D+02
     .482406000000D+06  .400000000000D+01
 2 09  4 24 16  0  0.0  .153592322022D-03  .113686837722D-12  .000000000000D+00
     .260000000000D+02  .111000000000D+03  .476591280511D-08  .119514797370D+01
     .572763383389D-05  .906079832930D-02  .113267451525D-04  .515365574265D+04
     .489600000000D+06  .147148966789D-06  .215581271117D+00  .113621354103D-06
     .942013074694D+00  .150875000000D+03  .278946272599D+01 -.806497879588D-08
     .207151485834D-10  .100000000000D+01  .152800000000D+04  .000000000000D+00
     .240000000000D+01  .000000000000D+00 -.172294676304D-07  .260000000000D+02
     .482406000000D+06  .400000000000D+01
 3 09  4 24 16  0  0.0  .383963808417D-03  .522959453519D-11  .000000000000D+00
     .990000000000D+02 -.508750000000D+02  .562666294453D-08  .840024402228D+00
    -.268593430519D-05  .117999577196D-01  .702030956745D-05  .515374528694D+04
     .489600000000D+06 -.152736902237D-06 -.931404169797D+00  .316649675369D-07
     .926058637877D+00  .227437500000D+03  .897795291726D+00 -.875107880327D-08
    -.604310886260D-09  .100000000000D+01  .152800000000D+04  .000000000000D+00
     .340000000000D+01  .000000000000D+00 -.419095158577D-08  .990000000000D+02
     .482406000000D+06  .400000000000D+01
